redcap_data_access_group_e,dag_id_e,place_name,postcode,country,lon,lat,ccg,area_name,perc_asian,perc_black,perc_white,perc_other
Cardiff and Vale University Health Board,7AH41,Cardiff and Vale University Health Board,CF14 4XW,Wales,-3.1902577,51.5067958,W11000029,NA,5.562,1.665,88.845,3.8965
North Manchester General Hospital,01452,North Manchester General Hospital,M8 5RB,England,-2.2301193,53.5184925,E38000217,NHS Manchester CCG,17.0903,33.3947,59.2767,0
North Manchester General Hospital,04152,North Manchester General Hospital,M8 5RB,England,-2.2301193,53.5184925,E38000217,NHS Manchester CCG,17.0903,33.3947,59.2767,0
Aneurin Bevan University Health Board,11409,Aneurin Bevan University Health Board,NP11 5GH,Wales,-3.1404429,51.6624976,W11000028,NA,1.2767,0.4882,96.7669,1.47572
North Manchester General Hospital,14152,North Manchester General Hospital,M8 5RB,England,-2.2301193,53.5184925,E38000217,NHS Manchester CCG,17.0903,33.3947,59.2767,0
Alder Hey Children's Hospital,CBS25,Alder Hey Children's Hospital,L14 5AB,England,-2.8959056,53.4182405,E38000101,NHS Liverpool CCG,4.16,11.094,84.7925,0
Royal Albert Edward Infirmary,FFR02,Royal Albert Edward Infirmary,WN1 2NN,England,-2.6294065,53.5581785,E38000205,NHS Wigan Borough CCG,1.1071,2.7233,95.4916,0.6779999999999973
"Queen Elizabeth University Hospital, Glasgow",GN405,"Queen Elizabeth University Hospital, Glasgow",G51 4TF,Scotland,-4.3404361,55.8624213,S08000031,NA,5.156385980642949,1.3432415148078798,92.70945963764868,0.4040685408370474
University Hospital Monklands Airdrie,L208H,University Hospital Monklands Airdrie,ML6 0JS,Scotland,-3.9995985,55.8658911,S08000032,NA,1.4694494089312036,0.22309736407505956,97.98986142556083,0.09623466640679247
Aberdeen Royal Infirmary,N100H,Aberdeen Royal Infirmary,AB25 2ZN,Scotland,-2.1359876,57.1546176,S08000020,NA,2.1359748779129126,1.148207309936896,95.9633501505111,0.3147290009331161
Weston Area Health NHS Trust,RA7C2,Weston Area Health NHS Trust,BS23 4TQ,England,-2.9725926,51.32237,E38000222,"NHS Bristol, North Somerset and South Gloucestershire CCG
",7.1606999999999985,9.7726,85.6786,7.1606999999999985
Mid and South Essex University Hospitals Group,RAJ02,Mid and South Essex University Hospitals Group,SS1 1ND,England,0.7115468,51.5377565,E38000168,NHS Southend CCG,3.7084,8.4275,87.0308,0.8333000000000084
Mid and South Essex University Hospitals Group,RAT01,Mid and South Essex University Hospitals Group,SS1 1ND,England,0.7115468,51.5377565,E38000168,NHS Southend CCG,3.7084,8.4275,87.0308,0.8333000000000084
Bedford Hospital NHS Trust,RC112,Bedford Hospital NHS Trust,MK42 9DJ,England,-0.4732228,52.1286828,E38000010,NHS Bedfordshire CCG,5.9083,11.2397,82.708,0.14400000000000546
East Sussex Healthcare NHS Trust,RCX01,East Sussex Healthcare NHS Trust,TN37 7PT,England,0.5681561,50.8849912,E38000076,NHS Hastings And Rother CCG,1.7855,4.5675,91.7392,1.9078000000000088
Poole Hospital NHS Trust,RD300,Poole Hospital NHS Trust,BH15 2JB,England,-1.9728348,50.7218666,E38000045,NHS Dorset CCG,1.9051,3.9519,91.9035,2.2395000000000067
Basildon and Thurrock University Hospitals NHS,RDHH0,Basildon and Thurrock University Hospitals NHS,SS16 5NL,England,0.4522164,51.5581745,E38000007,NHS Basildon And Brentwood CCG,2.8682,7.075,89.4417,0.6150999999999982
The Princess Alexandra Hospital,RDWG0,The Princess Alexandra Hospital,CM20 1QX,England,0.0858092,51.7710499,E38000197,NHS West Essex CCG,3.7676,8.1864,86.7948,1.2512000000000114
Gloucester Royal Hospital,RET03,Gloucester Royal Hospital,GL1 3NN,England,-2.232898,51.8660784,E38000062,NHS Gloucestershire CCG,2.0826,4.5792,91.5601,1.778099999999995
Maidstone and Tunbridge Wells NHS Trust,RFW03,Maidstone and Tunbridge Wells NHS Trust,TN2 4QJ,England,0.3069464,51.1483335,E38000199,NHS West Kent CCG,2.5102,4.9173,90.2627,2.30980000000001
Pinderfields,RFX05,Pinderfields,WF1 4DG,England,-1.4859205,53.6948876,E38000190,NHS Wakefield CCG,2.6081,4.5667,92.786,0.039199999999993906
University Hospitals of Derby and Burton NHFT,RGT02,University Hospitals of Derby and Burton NHFT,DE22 3NE,England,-1.5139933,52.9106394,E38000229,NA,NA,NA,NA,NA
Macclesfield District General Hospital,RHB71,Macclesfield District General Hospital,SK10 3BL,England,-2.1406887,53.2618713,E38000056,NHS Eastern Cheshire CCG,2.0267,3.6621,93.6814,0.629800000000003
Lewisham and Greenwich NHS Trust,RJ2319,Lewisham and Greenwich NHS Trust,SE4 2LA,England,-0.0422111,51.4570454,E38000098,NHS Lewisham CCG,9.2553,46.4683,41.4832,2.793200000000013
Imperial College Healthcare NHS Trust,RJY02,Imperial College Healthcare NHS Trust,W2 1NY,England,-0.1743487,51.5178108,E38000202,NHS West London (K&C & QPP) CCG,10.9958,33.4188,36.5108,19.074600000000004
University Hospital Southampton NHS Foundation Trust,RMH01,University Hospital Southampton NHS Foundation Trust,SO16 6YD,England,-1.4346812,50.9336562,E38000167,NHS Southampton CCG,8.3974,14.0804,77.6674,0
Whiston Hospital,RMN01,Whiston Hospital,L35 5DR,England,-2.7853229,53.4212302,E38000091,NHS Knowsley CCG,0.9617,2.7657,96.05330000000001,0.21929999999998984
"Chelsea and Westminster Hospital NHS, 369 Fulham Rd, London",RMQ01,"Chelsea and Westminster Hospital NHS, 369 Fulham Rd, London",SW10 9NH,England,-0.182401,51.4849533,E38000202,NHS West London (K&C & QPP) CCG,10.9958,33.4188,36.5108,19.074600000000004
"Chelsea and Westminster Hospital NHS, 369 Fulham Rd, London",RMQ91,"Chelsea and Westminster Hospital NHS, 369 Fulham Rd, London",SW10 9NH,England,-0.182401,51.4849533,E38000202,NHS West London (K&C & QPP) CCG,10.9958,33.4188,36.5108,19.074600000000004
North Cumbria Integrated Care NHSFT,RNN62,North Cumbria Integrated Care NHSFT,CA11 7QE,England,-2.753599,54.667373,E38000215,NHS North Cumbria CCG,0.8072,1.4472,96.5793,1.1662999999999926
West Cumberland Hospital,RNNBX,West Cumberland Hospital,CA28 8JG,England,-3.5631756,54.5302041,E38000215,NHS North Cumbria CCG,0.8072,1.4472,96.5793,1.1662999999999926
Royal Preston Hospital,RNX02,Royal Preston Hospital,PR2 9HT,England,-2.7040145,53.7908668,E38000227,NHS Greater Preston CCG,9.188749999999999,14.7793,81.6225,9.188749999999999
East Sussex Healthcare NHS Trust,R0C02,East Sussex Healthcare NHS Trust,TN37 7PT,England,0.5681561,50.8849912,E38000076,NHS Hastings And Rother CCG,1.7855,4.5675,91.7392,1.9078000000000088
Basildon and Thurrock University Hospitals NHS,RRDH0,Basildon and Thurrock University Hospitals NHS,SS16 5NL,England,0.4522164,51.5581745,E38000007,NHS Basildon And Brentwood CCG,2.8682,7.075,89.4417,0.6150999999999982
University Hospitals Birmingham,RRK02,University Hospitals Birmingham,B15 2TH,England,-1.9429313,52.4512054,E38000220,"NHS Birmingham and Solihull CCG
",18.0385,31.6275,63.923,18.0385
University Hospitals Birmingham,RRK03,University Hospitals Birmingham,B15 2TH,England,-1.9429313,52.4512054,E38000220,"NHS Birmingham and Solihull CCG
",18.0385,31.6275,63.923,18.0385
North West Boroughs Healthcare NHSFT,RTV33,North West Boroughs Healthcare NHSFT,WA2 8WA,England,-2.608387,53.4286247,E38000194,NHS Warrington CCG,2.4284,4.0726,92.9486,0.5503999999999962
Maidstone and Tunbridge Wells NHS Trust,RWF00,Maidstone and Tunbridge Wells NHS Trust,TN2 4QJ,England,0.3069464,51.1483335,E38000199,NHS West Kent CCG,2.5102,4.9173,90.2627,2.30980000000001
Leicester Royal Infirmary,RWWAA,Leicester Royal Infirmary,LE1 5WW,England,-1.1354407,52.6257466,E38000097,NHS Leicester City CCG,37.1302,49.4796,45.0611,0
NUH Nottingham University Hosptial,RXICC,NUH Nottingham University Hosptial,NG5 1PB,England,-1.1570212,52.9904528,E38000132,NHS Nottingham City CCG,13.0983,28.4552,65.4246,0
The Queen Elizabeth Hospital Kings Lynn NHS Foundation Trust,RXV70,The Queen Elizabeth Hospital Kings Lynn NHS Foundation Trust,PE30 4ET,England,0.4462463,52.7564633,E38000203,NHS West Norfolk CCG,1.18,2.6294,92.4158,3.774799999999999
Mid and South Essex University Hospitals Group,TAJ01,Mid and South Essex University Hospitals Group,SS1 1ND,England,0.7115468,51.5377565,E38000168,NHS Southend CCG,3.7084,8.4275,87.0308,0.8333000000000084
University Hospitals of Leicester,TWEAA,Leicester Royal Infirmary,LE1 5WW,England,-1.1348028,52.6278166,E38000097,NHS Leicester City CCG,37.1302,49.4796,45.0611,0
Bronglais General Hospital,WB2AJ,Bronglais General Hospital,SY23 1ER,Wales,-4.0711821,52.4164121,W11000025,NA,1.2767,0.4882,96.7669,1.47572
Prince Philip Hospital,WB3AL,Prince Philip Hospital,SA14 8QF,Wales,-4.134687,51.6922205,W11000025,NA,1.2767,0.4882,96.7669,1.47572
Withybush General Hospital,WF1BL,Withybush General Hospital,SA61 2PZ,Wales,-4.9664014,51.8130048,W11000025,NA,1.2767,0.4882,96.7669,1.47572
Glan Clwyd Hospital,7A1A1,Ysbyty Glan Clwyd,LL18 5UJ,Wales,-3.4971896,53.2726551,W11000023,NA,1.2767,0.4882,96.7669,1.47572
Wrexham Maelor Hospital,7A1A4,Wrexham Maelor Hospital,LL13 7TD,Wales,-3.0101803,53.0461734,W11000023,NA,1.2767,0.4882,96.7669,1.47572
Betsi Cadwaladr University Health Board,7A1AU,Ysbyty Gwynedd,LL57 2PW,Wales,-4.1577568,53.2086374,W11000023,NA,1.2767,0.4882,96.7669,1.47572
Glanwili General Hospital,7A2AA,Glangwili Hospital Child Health Section,SA31 2AF,Wales,-4.2833874,51.8673069,W11000025,NA,1.2767,0.4882,96.7669,1.47572
"Morriston Hospital, Swansea",7A3YA,Abertawe Bro Morgannwg University Lhb Bridgend Locality Office,CF31 3TP,Wales,-3.5506886,51.5024646,W11000030,NA,1.2767,0.4882,96.7669,1.47572
Cardiff and Vale University Health Board,7A4H1,Noahs Ark Childrens Hospital For Wales,CF14 4XW,Wales,-3.1889835,51.5062635,W11000029,NA,5.562,1.665,88.845,3.8965
Cwm Taf Morgannwg University Health Board,7A5B1,The Royal Glamorgan Hospital,CF72 8XR,Wales,-3.3905151,51.5479884,W11000030,NA,1.2767,0.4882,96.7669,1.47572
Cwm Taf Morgannwg University Health Board,7A5B3,Prince Charles Hospital Site,CF47 9DT,Wales,-3.3861006,51.7643331,W11000030,NA,1.2767,0.4882,96.7669,1.47572
NHS Ayrshire and Arran,A111H,University Hospital Crosshouse,KA2 0BE,Scotland,-4.5401309,55.6135442,S08000015,NA,0.7363959412595796,0.11613220875968659,98.84402962709252,0.07492400565141072
NHS Ayrshire and Arran,A210H,University Hospital Ayr,KA6 6DX,Scotland,-4.5939607,55.428935,S08000015,NA,0.7363959412595796,0.11613220875968659,98.84402962709252,0.07492400565141072
Borders General Hospital,B120H,Borders General Hospital,TD6 9BS,Scotland,-2.7419408,55.5954785,S08000016,NA,0.6437165188372705,0.2617019408096953,98.70905418459647,0.10801791516641786
Victoria Hospital Kirkcaldy,F701H,Cameron Hospital,KY8 5RR,Scotland,-3.0606955,56.1866783,S08000029,NA,1.5739407116139736,0.3083258944463004,97.63196950695239,0.1415670403452374
Victoria Hospital Kirkcaldy,F704H,Victoria Hospital,KY2 5AH,Scotland,-3.1601871,56.1244623,S08000029,NA,1.5739407116139736,0.3083258944463004,97.63196950695239,0.1415670403452374
Victoria Hospital Kirkcaldy,F708H,Adamson Hospital,KY15 4JG,Scotland,-3.0181746,56.3244035,S08000029,NA,1.5739407116139736,0.3083258944463004,97.63196950695239,0.1415670403452374
Victoria Hospital Kirkcaldy,F716H,Glenrothes Hospital,KY7 5TG,Scotland,-3.182677,56.2049141,S08000029,NA,1.5739407116139736,0.3083258944463004,97.63196950695239,0.1415670403452374
"Queen Elizabeth University Hospital, Glasgow University Hospital Monklands Airdrie",G405H,Queen Elizabeth University Hospital,G51 4TF,Scotland,-4.3392518,55.8626363,S08000031,NA,5.156385980642949,1.3432415148078798,92.70945963764868,0.4040685408370474
Lanarkshire NHSFT,L106H,University Hospital Monklands,ML6 0JS,Scotland,-3.9998893,55.8657665,S08000032,NA,1.4694494089312036,0.22309736407505956,97.98986142556083,0.09623466640679247
Lanarkshire NHSFT,L302H,University Hospital Hairmyres,G75 8RG,Scotland,-4.221977,55.7594711,S08000032,NA,1.4694494089312036,0.22309736407505956,97.98986142556083,0.09623466640679247
Lanarkshire NHSFT,L308H,University Hospital Wishaw,ML2 0DP,Scotland,-3.9420159,55.7736351,S08000032,NA,1.4694494089312036,0.22309736407505956,97.98986142556083,0.09623466640679247
Aberdeen Royal Infirmary,N101H,Aberdeen Royal Infirmary,AB25 2ZN,Scotland,-2.1372687,57.1546973,S08000020,NA,2.1359748779129126,1.148207309936896,95.9633501505111,0.3147290009331161
NHS Lothian,S116H,Western General Hospital,EH4 2XU,Scotland,-3.2338808,55.9621052,S08000024,NA,3.7237370408102115,0.7933121591658177,94.37897764727033,0.4814526277940912
NHS Lothian,S314H,Royal Infirmary Of Edinburgh At Little France,EH16 4SA,Scotland,-3.1347719,55.9218084,S08000024,NA,3.7237370408102115,0.7933121591658177,94.37897764727033,0.4814526277940912
Ninewells Hospital,T101H,Ninewells Hospital,DD1 9SY,Scotland,-2.9913622,56.461653,S08000030,NA,2.1017356221122796,0.4935210112543293,96.75525800019038,0.30289791046816156
Manchester University Hospital,R0A02,Manchester Royal Infirmary,M13 9WL,England,-2.22489070892334,53.461673736572266,E38000217,NHS Manchester CCG,17.0903,33.3947,59.2767,0
Manchester University Hospital,R0A03,Royal Manchester Children's Hospital,M13 9WL,England,-2.224475860595703,53.46046829223633,E38000217,NHS Manchester CCG,17.0903,33.3947,59.2767,0
Manchester University Hospital,R0A07,Wythenshawe Hospital,M23 9LT,England,-2.2918150424957275,53.388851165771484,E38000217,NHS Manchester CCG,17.0903,33.3947,59.2767,0
Manchester University Hospital,R0A09,Trafford General Hospital,M41 5SL,England,-2.370682954788208,53.45406723022461,E38000187,NHS Trafford CCG,7.9324,14.4515,80.4138,0
Manchester University Hospital,R0A07,Wythenshawe Hospital,M23 9LT,England,-2.2918150424957275,53.388851165771484,E38000217,NHS Manchester CCG,17.0903,33.3947,59.2767,0
St Mary's Hospital,R1F01,St Mary's Hospital,PO30 5TG,England,-1.3013159036636353,50.710845947265625,E38000087,NHS Isle Of Wight CCG,1.095,2.6905,94.8172,1.3973000000000013
St Bartholomews,R1H12,The Royal London Hospital,E1 1FR,England,-0.060150060802698135,51.518699645996094,E38000186,NHS Tower Hamlets CCG,41.1266,54.8127,31.1815,0
Northwick Park,R1K01,Northwick Park Hospital,HA1 3UJ,England,-0.3220227360725403,51.575408935546875,E38000020,NHS Brent CCG,34.0556,63.7293,17.957700000000003,0
Northwick Park,R1K02,Central Middlesex Hospital,NW10 7NS,England,-0.26914629340171814,51.53093719482422,E38000020,NHS Brent CCG,34.0556,63.7293,17.957700000000003,0
Royal Surrey NHSFT,RA201,Royal Surrey County Hospital,GU2 7XX,England,-0.6074482798576355,51.24101638793945,E38000214,NHS Guildford and Waverley CCG,3.7331,7.3961,85.6663,3.204499999999996
Yeovil District Hospital,RA430,Yeovil District Hospital,BA21 4AT,England,-2.6346983909606934,50.944847106933594,E38000150,NHS Somerset CCG,0.9195,2.0222,94.6386,2.419700000000006
Bristol Royal Infirmary,RA701,Bristol Royal Infirmary,BS2 8HW,England,-2.5961246490478516,51.45918655395508,E38000222,"NHS Bristol, North Somerset and South Gloucestershire CCG
",7.1606999999999985,9.7726,85.6786,7.1606999999999985
University Hospitals Bristol NHFT,RA707,St Michael's Hospital,BS2 8EG,England,-2.599376916885376,51.459136962890625,E38000222,"NHS Bristol, North Somerset and South Gloucestershire CCG
",7.1606999999999985,9.7726,85.6786,7.1606999999999985
University Hospitals Bristol NHFT,RA723,Bristol Royal Hospital For Children,BS2 8BJ,England,-2.5973148345947266,51.4577522277832,E38000222,"NHS Bristol, North Somerset and South Gloucestershire CCG
",7.1606999999999985,9.7726,85.6786,7.1606999999999985
Torbay and south Devon Hospital,RA901,Torbay Hospital,TQ2 7AA,England,-3.55379056930542,50.482322692871094,E38000152,NHS South Devon And Torbay CCG,0.8556,2.0959,95.3628,1.6857000000000113
Bradford Teaching Hospitals NHSFT,RAE01,Bradford Royal Infirmary,BD9 6RJ,England,-1.7946816682815552,53.80598449707031,E38000019,NHS Bradford Districts CCG,23.1026,28.6838,68.1909,0
Mid and South Essex University Hospitals Group,RAJ01,Southend Hospital,SS0 0RY,England,0.6886317729949951,51.553836822509766,E38000168,NHS Southend CCG,3.7084,8.4275,87.0308,0.8333000000000084
Royal Free Hospital,RAL01,Royal Free Hospital,NW3 2QG,England,-0.16530923545360565,51.55322265625,E38000027,NHS Camden CCG,16.0871,33.7132,43.9947,6.204999999999998
North Middlesex University Hospital NHST,RAPNM,North Middlesex University Hospital,N18 1QX,England,-0.07373514026403427,51.613094329833984,E38000057,NHS Enfield CCG,11.167,38.9886,40.4684,9.376000000000005
Hillingdon Hospital,RAS01,Hillingdon Hospital,UB8 3NN,England,-0.4611603617668152,51.52607727050781,E38000082,NHS Hillingdon CCG,25.2807,39.3906,52.1713,0
Musgrove Park Hospital,RBA11,Musgrove Park Hospital,TA1 5DA,England,-3.1216795444488525,51.01157760620117,E38000150,NHS Somerset CCG,0.9195,2.0222,94.6386,2.419700000000006
Dorset County Hospital NHFT,RBD01,Dorset County Hospital,DT1 2JY,England,-2.446922540664673,50.71294403076172,E38000045,NHS Dorset CCG,1.9051,3.9519,91.9035,2.2395000000000067
Walsall Healthcare NHST,RBK02,Manor Hospital,WS2 9PS,England,-1.9989091157913208,52.582332611083984,E38000191,NHS Walsall CCG,15.2315,21.11,76.9478,0
Wirral University Teaching Hospital NHFT,RBL14,Arrowe Park Hospital,CH49 5PE,England,-3.0968008041381836,53.36962890625,E38000208,NHS Wirral CCG,1.5998000000000001,3.0105,94.965,0.4247000000000014
Whiston Hospital,RBN01,Whiston Hospital,L35 5DR,England,-2.7849390506744385,53.420475006103516,E38000091,NHS Knowsley CCG,0.9617,2.7657,96.05330000000001,0.21929999999998984
Royal Liverpool & Broadgreen University Hospitals NHSFT,RBQHQ,Liverpool Heart And Chest Hospital,L14 3PE,England,-2.897974729537964,53.411155700683594,E38000101,NHS Liverpool CCG,4.16,11.094,84.7925,0
Mid Cheshire Hospital Trust,RBT20,Leighton Hospital,CW1 4QJ,England,-2.475848436355591,53.11769104003906,E38000151,NHS South Cheshire CCG,1.206,2.8834,93.4103,2.5002999999999957
The Christie NHSFT,RBV01,The Christie Main Site,M20 4BX,England,-2.2301101684570312,53.429771423339844,E38000217,NHS Manchester CCG,17.0903,33.3947,59.2767,0
Northern Devon Healthcare Trust,RBZ12,North Devon District Hospital,EX31 4JB,England,-4.050417900085449,51.0921745300293,E38000129,"NHS Northern, Eastern And Western Devon CCG",1.3507,2.9889,94.1851,1.47529999999999
Luton and Dunstable,RC971,Luton And Dunstable Hospital,LU4 0DZ,England,-0.47441545128822327,51.89414596557617,E38000102,NHS Luton CCG,29.9959,45.3354,44.5519,0
York Teaching Hospital,RCB55,The York Hospital,YO31 8HE,England,-1.084269642829895,53.96895217895508,E38000188,NHS Vale Of York CCG,2.2174,3.9833,92.5621,1.2372000000000014
Harrogate District Hospital,RCD01,Harrogate District Hospital,HG2 7SX,England,-1.5175583362579346,53.99380874633789,E38000073,NHS Harrogate And Rural District CCG,1.5259,3.6701,91.669,3.135000000000005
Airedale General Hospital,RCF22,Airedale General Hospital,BD20 6TD,England,-1.9626796245574951,53.89801788330078,E38000001,"NHS Airedale, Wharfdale And Craven CCG",9.3478,11.0767,86.4504,0
Sheffield Children's NHS Foundation Trust,RCUEF,Sheffield Children's Hospital,S10 2TH,England,-1.4906138181686401,53.3806037902832,E38000146,NHS Sheffield CCG,8.0306,16.3116,80.84649999999999,0
The Queen Elizabeth Hospital Kings Lynn NHS Foundation Trust,RCX70,The Queen Elizabeth Hospital,PE30 4ET,England,0.44669315218925476,52.75660705566406,E38000203,NHS West Norfolk CCG,1.18,2.6294,92.4158,3.774799999999999
Royal United Hospitals Bath NHSFT,RD130,Royal United Hospitals,BA1 3NG,England,-2.3907418,51.3918072,E38000009,NHS Bath And North East Somerset CCG,2.6003,5.4217,90.12819999999999,1.8498000000000019
Milton Keynes University Hospital,RD816,Milton Keynes Hospital,MK6 5LD,England,-0.7357665300369263,52.02637481689453,E38000107,NHS Milton Keynes CCG,8.9867,19.6233,74.3433,0
Basildon and Thurrock University Hospitals NHS,RDDH0,Basildon University Hospital,SS16 5NL,England,0.4505711793899536,51.557674407958984,E38000007,NHS Basildon And Brentwood CCG,2.8682,7.075,89.4417,0.6150999999999982
Basildon and Thurrock University Hospitals NHS,RDDH0,Basildon University Hospital,SS16 5NL,England,0.4505711793899536,51.557674407958984,E38000007,NHS Basildon And Brentwood CCG,2.8682,7.075,89.4417,0.6150999999999982
Ipswich Hospital,RDE03,Ipswich Hospital,IP4 5PD,England,1.1979291439056396,52.056846618652344,E38000086,NHS Ipswich And East Suffolk CCG,2.2112,5.6171,90.7955,1.3761999999999972
East Suffolk and North Essex NHFT,RDEE4,Colchester General Hospital,CO4 5JL,England,0.8991968035697937,51.91016387939453,E38000117,NHS North East Essex CCG,2.4524,5.512,90.9994,1.036200000000008
Ipswich Hospital,RDE03,Ipswich Hospital,IP4 5PD,England,1.1979291439056396,52.056846618652344,E38000086,NHS Ipswich And East Suffolk CCG,2.2112,5.6171,90.7955,1.3761999999999972
Frimley Health NHSFT,RDU01,Frimley Park Hospital,GU16 7UJ,England,-0.7420144081115723,51.31966781616211,E38000178,NHS Surrey Heath CCG,5.9624,9.3209,85.4959,0
Frimley Health NHSFT,RDU50,Wexham Park Hospital,SL2 4HL,England,-0.5739779472351074,51.53200912475586,E38000224,"NHS East Berkshire CCG
",17.714550000000003,26.6388,64.5709,17.714550000000003
Royal Bournemouth and Christchurch Hospitals NHS Foundation Trust,RDZ20,Royal Bournemouth Hospital,BH7 7DW,England,-1.8205056190490723,50.74748611450195,E38000045,NHS Dorset CCG,1.9051,3.9519,91.9035,2.2395000000000067
Royal Cornwall,REF12,Royal Cornwall Hospital (Treliske),TR1 3LQ,England,-5.094248294830322,50.26654052734375,E38000089,NHS Kernow CCG,0.6429,1.7683,95.7414,1.8474000000000075
Aintree University Hospital,REM21,Aintree University Hospital,L9 7AL,England,-2.931089401245117,53.46632766723633,E38000101,NHS Liverpool CCG,4.16,11.094,84.7925,0
Royal Liverpool & Broadgreen University Hospitals NHSFT,REMRQ,Royal Liverpool University Hospital,L7 8XP,England,-2.964794158935547,53.40951156616211,E38000101,NHS Liverpool CCG,4.16,11.094,84.7925,0
Barking Havering and Redbridge University NHST,RF4QH,Queen's Hospital,RM7 0AG,England,0.18040530383586884,51.569427490234375,E38000077,NHS Havering CCG,4.8665,12.3436,83.3003,0
Barnsley Hospital,RFFAA,Barnsley Hospital,S75 2EP,England,-1.4994779825210571,53.55913543701172,E38000006,NHS Barnsley CCG,0.7184,2.1348,96.083,1.0638000000000005
The Rotherham NHSFT,RFRPA,Rotherham Hospital,S60 2UD,England,-1.3428654670715332,53.41397476196289,E38000141,NHS Rotherham CCG,4.101,6.4218,91.8991,0
Chesterfield Royal Hospital NHSFT,RFSDA,Chesterfield Royal Hospital,S44 5BL,England,-1.4000365734100342,53.2362174987793,E38000115,NHS North Derbyshire CCG,1.0285,2.4589,95.8991,0.6135000000000019
Royal Papworth Hospital NHSFT,RGM21,Royal Papworth Hospital,CB2 0AY,England,0.13618962466716766,52.172386169433594,E38000026,NHS Cambridgeshire and Peterborough CCG,5.6878,9.4899,81.7898,3.032499999999999
North West Anglia NHSFT,RGN80,Peterborough City Hospital,PE3 9GZ,England,-0.2785687,52.5837926,E38000026,NHS Cambridgeshire and Peterborough CCG,5.6878,9.4899,81.7898,3.032499999999999
North West Anglia NHSFT,RGN90,Hinchingbrooke Hospital,PE29 6NT,England,-0.20266403257846832,52.333351135253906,E38000026,NHS Cambridgeshire and Peterborough CCG,5.6878,9.4899,81.7898,3.032499999999999
James Paget University Hospitals,RGP75,James Paget University Hospital,NR31 6LA,England,1.7179944515228271,52.561668395996094,E38000063,NHS Great Yarmouth And Waveney CCG,1.0177,2.6947,94.4168,1.8708000000000027
West Suffolk Hospital,RGR50,West Suffolk Hospital,IP33 2QZ,England,0.7091901898384094,52.23166275024414,E38000204,NHS West Suffolk CCG,1.5819,4.6485,88.3243,5.445300000000003
Addenbrookes Hospital,RGT01,Addenbrooke's,CB2 0QQ,England,0.14075323939323425,52.175132751464844,E38000026,NHS Cambridgeshire and Peterborough CCG,5.6878,9.4899,81.7898,3.032499999999999
Royal Devon and Exeter Hospital,RH801,Royal Devon And Exeter Hospital (Wonford),EX2 5DW,England,-3.506666421890259,50.71670913696289,E38000152,NHS South Devon And Torbay CCG,0.8556,2.0959,95.3628,1.6857000000000113
"Queen Elizabeth University Hospital, Glasgow University Hospital Monklands Airdrie",RHM01,Queen Elizabeth University Hospital,G51 4TF,Scotland,-1.4350899457931519,50.933021545410156,S08000031,NA,5.156385980642949,1.3432415148078798,92.70945963764868,0.4040685408370474
Sheffield Teaching Hospitals NHS Foundation Trust,RHQHH,Royal Hallamshire Hospital,S10 2JF,England,-1.4933162927627563,53.37835693359375,E38000146,NHS Sheffield CCG,8.0306,16.3116,80.84649999999999,0
Queen Alexandra Hospital,RHU03,Queen Alexandra Hospital,PO6 3LY,England,-1.0699176788330078,50.85029983520508,E38000137,NHS Portsmouth CCG,6.0832,11.6427,84.0322,0
Royal Berkshire Hospital,RHW01,Royal Berkshire Hospital,RG1 5AN,England,-0.9593157768249512,51.45102310180664,E38000221,"NHS Berkshire West CCG
",10.132800000000003,14.0405,79.7344,10.132800000000003
Guys and St Thomas,RJ122,St Thomas',SE1 7EH,England,-0.11889063566923141,51.49795913696289,E38000092,NHS Lambeth CCG,6.9083,42.9122,39.0153,11.164199999999994
University Hospital Lewisham,RJ224,University Hospital Lewisham,SE13 6LH,England,-0.01703643798828125,51.45433044433594,E38000098,NHS Lewisham CCG,9.2553,46.4683,41.4832,2.793200000000013
Lewisham and Greenwich NHS Trust,RJ231,Queen Elizabeth Hospital,SE18 4QH,England,0.05005710944533348,51.47819137573242,E38000066,NHS Greenwich CCG,11.7435,37.5378,52.2987,0
Croydon Health Services NHS Trust,RJ611,Croydon University Hospital,CR7 7YE,England,-0.10876881331205368,51.389129638671875,E38000040,NHS Croydon CCG,16.4091,44.9072,47.2621,0
Warwick Hospital,RJC02,Warwick Hospital,CV34 5BW,England,-1.5832006931304932,52.28995132446289,E38000164,NHS South Warwickshire CCG,4.4206,7.0162,88.1402,0.4230000000000018
University Hospitals of North Midlands NHST,RJE01,Royal Stoke University Hospital,ST4 6QG,England,-2.2120518684387207,53.00315856933594,E38000175,NHS Stoke On Trent CCG,7.1847,11.0346,86.8064,0
Northern Lincolnshire and Goole NHSFT,RJL30,Diana,DN33 2BA,England,-0.095144,53.544828,E38000119,NHS North East Lincolnshire CCG,1.3338,2.6282,95.3789,0.6590999999999951
Northern Lincolnshire and Goole NHSFT,RJL32,Scunthorpe General Hospital,DN15 7BH,England,-0.6675840616226196,53.58758544921875,E38000122,NHS North Lincolnshire CCG,2.7167,4.0001,92.2841,0.9990999999999985
Macclesfield District General Hospital,RJN71,Macclesfield District General Hospital,SK10 3BL,England,-2.141059637069702,53.262325286865234,E38000056,NHS Eastern Cheshire CCG,2.0267,3.6621,93.6814,0.629800000000003
Countess Of Chester Hospital,RJR05,Countess Of Chester Hospital,CH2 1HJ,England,-2.899009943008423,53.21177291870117,E38000196,NHS West Cheshire CCG,1.3605,2.838,94.1203,1.681200000000004
Countess Of Chester Hospital,RJR05,Countess Of Chester Hospital,CH2 1HJ,England,-2.899009943008423,53.21177291870117,E38000196,NHS West Cheshire CCG,1.3605,2.838,94.1203,1.681200000000004
King's College Hospital,RJZ01,King's College Hospital,SE5 9RS,England,-0.0939013883471489,51.46807861328125,E38000092,NHS Lambeth CCG,6.9083,42.9122,39.0153,11.164199999999994
Sherwood Forest Hospitals NHSFT,RK5BC,King's Mill Hospital,NG17 4JL,England,-1.233566164970398,53.13455581665039,E38000103,NHS Mansfield And Ashfield CCG,1.0695,2.4882,94.5706,1.8717000000000041
University Hospital Plymouth,RK950,Derriford Hospital,PL6 8DH,England,-4.11367130279541,50.41672897338867,E38000152,NHS South Devon And Torbay CCG,0.8556,2.0959,95.3628,1.6857000000000113
University Hospitals Coventry and Warwickshire,RKB01,University Hospital (Coventry),CV2 2DX,England,-1.4383885860443115,52.42121505737305,E38000038,NHS Coventry And Rugby CCG,13.6255,22.1662,70.8329,0
Whittington Health NHST,RKEQ4,The Whittington Hospital,N19 5NF,England,-0.13862308859825134,51.56631088256836,E38000088,NHS Islington CCG,9.2342,31.8302,47.7002,11.235399999999998
The Royal Wolverhampton NHST,RL403,New Cross Hospital,WV10 0QP,England,-2.0955405235290527,52.599727630615234,E38000210,NHS Wolverhampton CCG,18.0222,31.983,64.51480000000001,0
Hereford Hospital,RLQ01,The County Hospital,HR1 2ER,England,-2.7058348,52.0574483,E38000078,NHS Herefordshire CCG,0.7843,1.803,93.7022,3.710499999999996
George Eliot Hospital,RLT01,George Eliot Hospital,CV10 7DJ,England,-1.4784245491027832,52.5125846862793,E38000195,NHS Warwickshire North CCG,4.5176,6.4961,91.2488,0
Norfolk and Norwich University Hospital NHSFT,RM102,Norfolk And Norwich University Hospital,NR4 7UY,England,1.2210814952850342,52.61808395385742,E38000219,NHS South Norfolk CCG,0.9342,2.4759,93.0796,3.510300000000001
Salford Royal NHSFT,RM301,Salford Royal,M6 8HD,England,-2.3234095573425293,53.487548828125,E38000143,NHS Salford CCG,4.0306,9.8622,84.4024,1.7048000000000059
Bolton NHST,RMC01,Royal Bolton Hospital,BL4 0JR,England,-2.4298787117004395,53.55396270751953,E38000016,NHS Bolton CCG,13.9996,18.1154,79.4094,0
Tameside Hospital Integrated Care NHSFT,RMP01,Tameside & Glossop Integrated Care Nhs Foundation Trust,OL6 9RW,England,-2.071418523788452,53.49153518676758,E38000182,NHS Tameside And Glossop CCG,5.8725,8.206,89.453,0
Great Western NHS FT,RN325,The Great Western Hospital,SN3 6BB,England,-1.727185845375061,51.53853225708008,E38000181,NHS Swindon CCG,6.2919,10.0309,84.77590000000001,0
Royal Hampshire County Hospital,RN506,Basingstoke And North Hampshire Hospital,RG24 9NA,England,-1.1099036931991577,51.280635833740234,E38000120,NHS North Hampshire CCG,3.5317,6.3929,89.102,0.973399999999998
Royal Hampshire County Hospital,RN541,Royal Hampshire County Hospital,SO22 5DG,England,-1.3291560411453247,51.061710357666016,E38000198,NHS West Hampshire CCG,1.9362,3.8565,92.9973,1.210000000000008
The Dudley Group NHSFT,RNA01,Russells Hall Hospital,DY1 2HQ,England,-2.1185030937194824,52.50294876098633,E38000046,NHS Dudley CCG,6.0532,10.0081,88.5356,0
The Dudley Group NHSFT,RNA01,Russells Hall Hospital,DY1 2HQ,England,-2.1185030937194824,52.50294876098633,E38000046,NHS Dudley CCG,6.0532,10.0081,88.5356,0
Kettering General Hospital NHSFT,RNQ51,Kettering General Hospital,NN16 8UZ,England,-0.741529107093811,52.401145935058594,E38000108,NHS Nene CCG,3.9709,9.0945,85.5486,1.38600000000001
Northampton General Hospital NHS Trust,RNS01,Northampton General Hospital (Acute),NN1 5BD,England,-0.8838294744491577,52.236053466796875,E38000108,NHS Nene CCG,3.9709,9.0945,85.5486,1.38600000000001
Northampton General Hospital NHS Trust,RNS01,Northampton General Hospital (Acute),NN1 5BD,England,-0.8838294744491577,52.236053466796875,E38000108,NHS Nene CCG,3.9709,9.0945,85.5486,1.38600000000001
Manchester University Hospital,R0A07,Wythenshawe Hospital,M23 9LT,England,-2.2918150424957275,53.388851165771484,E38000217,NHS Manchester CCG,17.0903,33.3947,59.2767,0
Doncaster and Bassetlaw Teaching Hospitals NHFT,RP5BA,Bassetlaw Hospital,S81 0BD,England,-1.1098852157592773,53.31767654418945,E38000008,NHS Bassetlaw CCG,1.112,2.6324,94.5066,1.7489999999999952
Doncaster and Bassetlaw Teaching Hospitals NHFT,RP5DR,Doncaster Royal Infirmary,DN2 5LT,England,-1.1092113256454468,53.53075408935547,E38000044,NHS Doncaster CCG,2.5178,4.7407,91.8446,0.8969000000000023
Great Ormond Street Hospital,RP401,Great Ormond Street Hospital,WC1N 3JH,England,-0.11990952491760254,51.52220916748047,E38000027,NHS Camden CCG,16.0871,33.7132,43.9947,6.204999999999998
Medway NHSFT,RPA02,Medway Maritime Hospital,ME7 5NY,England,0.542076051235199,51.379859924316406,E38000104,NHS Medway CCG,5.1587,10.3613,85.4993,0
The Royal Marsden NHST,RPY01,The Royal Marsden Hospital (London),SW3 6JJ,England,-0.17255078256130219,51.490562438964844,E38000202,NHS West London (K&C & QPP) CCG,10.9958,33.4188,36.5108,19.074600000000004
The Royal Marsden NHST,RPY02,The Royal Marsden Hospital (Surrey),SM2 5PT,England,-0.19110026955604553,51.34347915649414,E38000179,NHS Sutton CCG,11.5885,21.403,70.9213,0
Mid and South Essex University Hospitals Group,RQ8L0,Broomfield Hospital,CM1 7ET,England,0.46673330664634705,51.77461242675781,E38000106,NHS Mid Essex CCG,1.9744,4.3828,92.305,1.3377999999999872
BirminghamWomens Childrens Hospital,RQ301,Birmingham Children's Hospital,B4 6NH,England,-1.8937397003173828,52.48489761352539,E38000220,"NHS Birmingham and Solihull CCG
",18.0385,31.6275,63.923,18.0385
Chelsea & Westminster Hospital,RQM01,Chelsea And Westminster Hospital,SW10 9NH,England,-0.1816297024488449,51.484310150146484,E38000202,NHS West London (K&C & QPP) CCG,10.9958,33.4188,36.5108,19.074600000000004
The Princess Alexandra Hospital,RQWG0,Princess Alexandra Hospital,CM20 1QX,England,0.08547129482030869,51.77153015136719,E38000197,NHS West Essex CCG,3.7676,8.1864,86.7948,1.2512000000000114
The Princess Alexandra Hospital,RQWG0,Princess Alexandra Hospital,CM20 1QX,England,0.08547129482030869,51.77153015136719,E38000197,NHS West Essex CCG,3.7676,8.1864,86.7948,1.2512000000000114
Homerton University Hospital,RQXM1,Homerton University Hospital,E9 6SR,England,-0.04608435556292534,51.55063247680664,E38000035,NHS City And Hackney CCG,10.5687,44.6407,36.773,8.017599999999987
Gateshead Health NHSFT,RR7EN,Queen Elizabeth Hospital,NE9 6SX,England,-1.5807654857635498,54.93938446044922,E38000212,NHS Newcastle And Gateshead CCG,6.4208,10.016,86.9864,0
The Leeds Teaching Hospitals NHST,RR813,St James's Hospital,LS9 7TF,England,-1.5203437805175781,53.8068733215332,E38000225,"NHS Leeds CCG
",9.432699999999997,14.9036,81.1346,9.432699999999997
Royal Albert Edward Infirmary,RRF02,Royal Albert Edward Infirmary,WN1 2NN,England,-2.6290764808654785,53.557743072509766,E38000205,NHS Wigan Borough CCG,1.1071,2.7233,95.4916,0.6779999999999973
Royal Brompton and Harefield NHFT,RT301,Harefield Hospital,UB9 6JH,England,-0.4827539324760437,51.60673141479492,E38000082,NHS Hillingdon CCG,25.2807,39.3906,52.1713,0
Royal Brompton and Harefield NHFT,RT302,Royal Brompton Hospital,SW3 6NP,England,-0.1708405464887619,51.489742279052734,E38000202,NHS West London (K&C & QPP) CCG,10.9958,33.4188,36.5108,19.074600000000004
The Newcastle upon Tyne Hospitals NHSFT,RTD02,The Royal Victoria Infirmary,NE1 4LP,England,-1.6188395023345947,54.98021697998047,E38000212,NHS Newcastle And Gateshead CCG,6.4208,10.016,86.9864,0
Gloucester Royal Hospital,RTE03,Gloucestershire Royal Hospital,GL1 3NN,England,-2.232058525085449,51.86638259887695,E38000062,NHS Gloucestershire CCG,2.0826,4.5792,91.5601,1.778099999999995
Gloucester Royal Hospital,RTE03,Gloucestershire Royal Hospital,GL1 3NN,England,-2.232058525085449,51.86638259887695,E38000062,NHS Gloucestershire CCG,2.0826,4.5792,91.5601,1.778099999999995
Northumbria Healthcare NHS Trust,RTF86,Northumbria Specialist Emergency Care Hospital,NE23 6NZ,England,-1.5696691274642944,55.07406997680664,E38000130,NHS Northumberland CCG,0.8411,1.5701,97.174,0.4147999999999996
Northumbria Healthcare NHS Trust,RTFED,Wansbeck General Hospital,NE63 9JJ,England,-1.5465863943099976,55.18431091308594,E38000130,NHS Northumberland CCG,0.8411,1.5701,97.174,0.4147999999999996
Northumbria Healthcare NHS Trust,RTFFS,North Tyneside General Hospital,NE29 8NH,England,-1.4673244953155518,55.02524185180664,E38000127,NHS North Tyneside CCG,1.8999,3.3745,95.0872,0
University Hospitals of Derby and Burton NHFT,RTG02,Burton Hospital,DE13 0RB,England,-1.6563690900802612,52.817779541015625,E38000053,NHS East Staffordshire CCG,6.4646,9.0441,86.896,0
University Hospitals of Derby and Burton NHFT,RTG02,Burton Hospital,DE13 0RB,England,-1.6563690900802612,52.817779541015625,E38000053,NHS East Staffordshire CCG,6.4646,9.0441,86.896,0
Oxford University Hospitals NHSFT,RTH08,John Radcliffe Hospital,OX3 9DU,England,-1.2197920083999634,51.76387405395508,E38000136,NHS Oxfordshire CCG,4.9156,9.2787,83.4237,2.382000000000005
Ashford and St Peters Hospital NHSFT,RTK01,St Peter's Hospital,KT16 0PZ,England,-0.5270460247993469,51.37783432006836,E38000128,NHS North West Surrey CCG,7.8863,12.4733,79.33070000000001,0.3096999999999923
Surrey and Sussex Healthcare NHST,RTP04,East Surrey Hospital,RH1 5RH,England,-0.1619950234889984,51.21919250488281,E38000054,NHS East Surrey CCG,4.1702,8.3111,86.2712,1.2475000000000023
South Tees Hospital NHS Foundation Trust,RTRAT,The James Cook University Hospital,TS4 3BW,England,-1.2147899866104126,54.5517578125,E38000162,NHS South Tees CCG,4.2535,6.7002,91.7559,0
University Hospitals Of Morecambe Bay,RTX02,Royal Lancaster Infirmary,LA1 4RP,England,-2.7992172241210938,54.04273223876953,E38000228,NHS Morecambe Bay CCG,2.8710499999999968,2.7865,94.2579,2.8710499999999968
University Hospitals Of Morecambe Bay,RTXBU,Furness General Hospital,LA14 4LF,England,-3.2078845500946045,54.13640213012695,E38000228,NHS Morecambe Bay CCG,2.8710499999999968,2.7865,94.2579,2.8710499999999968
University Hospitals Of Morecambe Bay,RTXBW,Westmorland General Hospital,LA9 7RG,England,-2.732536792755127,54.30670928955078,E38000228,NHS Morecambe Bay CCG,2.8710499999999968,2.7865,94.2579,2.8710499999999968
Southmead Hospital,RVJ01,Southmead Hospital,BS10 5NB,England,-2.5910003185272217,51.49481201171875,E38000222,"NHS Bristol, North Somerset and South Gloucestershire CCG
",7.1606999999999985,9.7726,85.6786,7.1606999999999985
Epsom & St Helier NHSFT,RVR05,St Helier Hospital,SM5 1AA,England,-0.18362735211849213,51.380313873291016,E38000179,NHS Sutton CCG,11.5885,21.403,70.9213,0
East Kent Hospitals NHSFT,RVV01,William Harvey Hospital (Ashford),TN24 0LZ,England,0.9162230491638184,51.14148712158203,E38000002,NHS Ashford CCG,3.3835,6.304,89.4384,0.8740999999999985
East Kent Hospitals NHSFT,RVV09,Queen Elizabeth The Queen Mother Hospital,CT9 4AN,England,1.3893986940383911,51.3780517578125,E38000184,NHS Thanet CCG,1.8661,4.4654,90.4312,3.2372999999999905
East Kent Hospitals NHSFT,RVVKC,Kent And Canterbury Hospital,CT1 3NG,England,1.0870975255966187,51.26658630371094,E38000029,NHS Canterbury And Coastal CCG,2.7891,5.8565,89.06569999999999,2.2887000000000057
East Kent Hospitals NHSFT,RVV09,Queen Elizabeth The Queen Mother Hospital,CT9 4AN,England,1.3893986940383911,51.3780517578125,E38000184,NHS Thanet CCG,1.8661,4.4654,90.4312,3.2372999999999905
University Hospital of North Tees,RVWAE,University Hospital Of North Tees,TS19 8PE,England,-1.3475654125213623,54.58285903930664,E38000075,NHS Hartlepool And Stockton-On-Tees CCG,2.7979,4.3859,94.4475,0
Southport and Ormskirk Hospital NHS Trust,RVY01,Southport And Formby District General Hospital,PR8 6PN,England,-2.9788076877593994,53.63356018066406,E38000170,NHS Southport And Formby CCG,1.2668,3.1,93.0778,2.555400000000006
Merseycare NHS Foundation Trust,RW404,Ashworth Hospital,L31 1HW,England,-2.9153599739074707,53.518672943115234,E38000161,NHS South Sefton CCG,0.7972,2.1985,96.0806,0.9236999999999966
Fairfield General Hospital,RW601,Fairfield General Hospital,BL9 7TD,England,-2.255607843399048,53.600425720214844,E38000024,NHS Bury CCG,7.2447,10.8224,85.3221,0
The Royal Oldham Hospital,RW603,Royal Oldham Hospital,OL1 2JH,England,-2.1218161582946777,53.553253173828125,E38000135,NHS Oldham CCG,19.1932,22.4863,75.5701,0
Hull University Teaching Hospitals,RWA16,Castle Hill Hospital,HU16 5JQ,England,-0.4449694752693176,53.7767333984375,E38000052,NHS East Riding Of Yorkshire CCG,0.881,1.8787,96.194,1.0463000000000022
United Lincolnshire Hospital NHST,RWDDA,Lincoln County Hospital,LN2 5QY,England,-0.5196201801300049,53.233577728271484,E38000100,NHS Lincolnshire West CCG,1.2708,2.9508,93.403,2.375399999999999
United Lincolnshire Hospital NHST,RWDLA,Pilgrim Hospital,PE21 9QS,England,-0.009952853433787823,52.991127014160156,E38000099,NHS Lincolnshire East CCG,0.822,1.9977,92.8978,4.282499999999999
United Lincolnshire Hospital NHST,RWDLP,Grantham And District Hospital,NG31 8DG,England,-0.6406991481781006,52.92108917236328,E38000165,NHS South West Lincolnshire CCG,1.0559,2.3025,93.8347,2.806899999999999
University Hospitals of Leicester,RWEAA,Leicester Royal Infirmary,LE1 5WW,England,-1.1359461545944214,52.62678527832031,E38000097,NHS Leicester City CCG,37.1302,49.4796,45.0611,0
Maidstone and Tunbridge Wells NHST,RWF03,Maidstone Hospital,ME16 9QQ,England,0.4839882254600525,51.27366256713867,E38000199,NHS West Kent CCG,2.5102,4.9173,90.2627,2.30980000000001
Maidstone and Tunbridge Wells NHST,RWFTW,Tunbridge Wells Hospital At Pembury,TN2 4QJ,England,0.30748459696769714,51.14845275878906,E38000199,NHS West Kent CCG,2.5102,4.9173,90.2627,2.30980000000001
West Hertfordshire Hospitals NHST,RWG02,Watford General Hospital,WD18 0HB,England,-0.40527793765068054,51.648590087890625,E38000079,NHS Herts Valleys CCG,8.4056,14.55,78.1052,0
East and North Hertfordshire NHST,RWH01,Lister Hospital,SG1 4AB,England,-0.21271154284477234,51.92461013793945,E38000049,NHS East And North Hertfordshire CCG,4.6553,10.437,83.3282,1.5795000000000101
Stockport NHSFT,RWJ09,Stepping Hill Hospital,SK2 7JE,England,-2.132004976272583,53.38378143310547,E38000174,NHS Stockport CCG,4.8582,7.9273,88.975,0
Worcestershire Acute Hospitals NHS Trust,RWP50,Worcestershire Royal Hospital,WR5 1DD,England,-2.1793410778045654,52.1915168762207,E38000166,NHS South Worcestershire CCG,2.2033,3.7029,92.6039,1.4899000000000058
Warrington and Halton Teaching Hospitals NHS Foundation Trust,RWWWH,Warrington Hospital,WA5 1QG,England,-2.6107027530670166,53.393978118896484,E38000194,NHS Warrington CCG,2.4284,4.0726,92.9486,0.5503999999999962
Calderdale and Huddersfield NHS Trust,RWY01,Huddersfield Royal Infirmary,HD3 3EA,England,-1.816323161125183,53.65547561645508,E38000064,NHS Greater Huddersfield CCG,10.5005,17.3872,79.6154,0
NUH Nottingham University Hosptial,RX1CC,Nottingham University Hospitals Nhs Trust - City Campus,NG5 1PB,England,-1.1584131717681885,52.99123764038086,E38000132,NHS Nottingham City CCG,13.0983,28.4552,65.4246,0
NUH Nottingham University Hosptial,RX1RA,Nottingham University Hospitals Nhs Trust - Queen's Medical Centre Campus,NG7 2UH,England,-1.1859418153762817,52.94380187988281,E38000132,NHS Nottingham City CCG,13.0983,28.4552,65.4246,0
East Sussex Healthcare NHS Trust,RXC01,Conquest Hospital,TN37 7RD,England,0.5672841668128967,50.88516616821289,E38000076,NHS Hastings And Rother CCG,1.7855,4.5675,91.7392,1.9078000000000088
East Sussex Healthcare NHS Trust,RXC02,Eastbourne District General Hospital,BN21 2UD,England,0.27112165093421936,50.78696823120117,E38000055,"NHS Eastbourne, Hailsham And Seaford CCG",2.1097,4.4017,90.6093,2.8793000000000006
East Sussex Healthcare NHS Trust,RXC01,Conquest Hospital,TN37 7RD,England,0.5672841668128967,50.88516616821289,E38000076,NHS Hastings And Rother CCG,1.7855,4.5675,91.7392,1.9078000000000088
East Sussex Healthcare NHS Trust,RXC02,Eastbourne District General Hospital,BN21 2UD,England,0.27112165093421936,50.78696823120117,E38000055,"NHS Eastbourne, Hailsham And Seaford CCG",2.1097,4.4017,90.6093,2.8793000000000006
Mid Yorkshire Hospitals NHST,RXF05,Pinderfields Hospital,WF1 4DG,England,-1.4885402917861938,53.692420959472656,E38000190,NHS Wakefield CCG,2.6081,4.5667,92.786,0.039199999999993906
Brighton and Sussex University Hospitals NHST,RXH01,Royal Sussex County Hospital,BN2 5BE,England,-0.11816248297691345,50.8194694519043,E38000021,NHS Brighton And Hove CCG,4.1256,10.9219,80.4839,4.468599999999995
Brighton and Sussex University Hospitals NHST,RXH09,Princess Royal Hospital,RH16 4EX,England,-0.09026799350976944,50.99109649658203,E38000083,NHS Horsham And Mid Sussex CCG,2.6267,4.9118,90.4592,2.0023000000000053
Sandwell and West Birmingham NHST,RXK01,Sandwell District General Hospital,B71 4HJ,England,-1.988857388496399,52.528079986572266,E38000144,NHS Sandwell And West Birmingham CCG,28.5454,45.3218,50.1401,0
Sandwell and West Birmingham NHST,RXK02,City Hospital,B18 7QH,England,-1.9324921369552612,52.48863220214844,E38000144,NHS Sandwell And West Birmingham CCG,28.5454,45.3218,50.1401,0
Blackpool Teaching Hospitals NHSFT,RXL01,Blackpool Victoria Hospital,FY3 8NR,England,-3.0158531665802,53.82060623168945,E38000015,NHS Blackpool CCG,1.6063,3.3266,93.6487,1.4183999999999912
Royal Preston Hospital,RXN02,Royal Preston Hospital,PR2 9HT,England,-2.70682954788208,53.79151153564453,E38000227,NHS Greater Preston CCG,9.188749999999999,14.7793,81.6225,9.188749999999999
University Hospital of North Durham,RXPCP,University Hospital Of North Durham,DH1 5TW,England,-1.5938187837600708,54.78850173950195,E38000116,NHS North Durham CCG,1.4057,2.5499,95.3805,0.6638999999999982
Darlington Memorial Hospital,RXPDA,Darlington Memorial Hospital,DL3 6HX,England,-1.5637173652648926,54.53037643432617,E38000042,NHS Darlington CCG,2.0888,3.7598,93.6853,0.4660999999999973
Buckinghamshire Healthcare NHS Trust,RXQ02,Stoke Mandeville Hospital,HP21 8AL,England,-0.8019975423812866,51.797977447509766,E38000223,"NHS Buckinghamshire CCG
",9.395899999999997,13.4967,81.2082,9.395899999999997
Buckinghamshire Healthcare NHS Trust,RXQ50,Wycombe Hospital,HP11 2TT,England,-0.7534134984016418,51.626441955566406,E38000223,"NHS Buckinghamshire CCG
",9.395899999999997,13.4967,81.2082,9.395899999999997
East Lancashire Hospitals NHST,RXR20,Royal Blackburn Hospital,BB2 3HH,England,-2.4627013206481934,53.735565185546875,E38000014,NHS Blackburn With Darwen CCG,28.1336,30.8362,66.5433,0
The Royal Shrewsbury Hospital,RXWAS,Royal Shrewsbury Hospital,SY3 8XQ,England,-2.7937374114990234,52.7093620300293,E38000147,NHS Shropshire CCG,1.0091,2.0433,95.4,1.5475999999999885
Imperial College Healthcare NHST,RYJ01,St Mary's Hospital (Hq),W2 1NY,England,-0.17355506122112274,51.516971588134766,E38000202,NHS West London (K&C & QPP) CCG,10.9958,33.4188,36.5108,19.074600000000004
Imperial College Healthcare NHST,RYJ02,Charing Cross Hospital,W6 8RF,England,-0.21992097795009613,51.48704528808594,E38000070,NHS Hammersmith And Fulham CCG,9.1154,31.9305,44.9272,14.026900000000012
Imperial College Healthcare NHST,RYJ03,Hammersmith Hospital,W12 0HS,England,-0.2347068190574646,51.51742172241211,E38000070,NHS Hammersmith And Fulham CCG,9.1154,31.9305,44.9272,14.026900000000012
Imperial College Healthcare NHST,RYJ01,St Mary's Hospital (Hq),W2 1NY,England,-0.17355506122112274,51.516971588134766,E38000202,NHS West London (K&C & QPP) CCG,10.9958,33.4188,36.5108,19.074600000000004
Western Sussex Hospitals NHSFT,RYR16,St Richard's Hospital,PO19 6SE,England,-0.7680127620697021,50.84355545043945,E38000213,NHS Coastal West Sussex CCG,1.8278,3.7799,91.9587,2.4336000000000126
Western Sussex Hospitals NHSFT,RYR18,Worthing Hospital,BN11 2DH,England,-0.36341506242752075,50.81669235229492,E38000213,NHS Coastal West Sussex CCG,1.8278,3.7799,91.9587,2.4336000000000126
